{
    "links": {
        "self": "http://www.neowsapp.com/rest/v1/neo/3711782?api_key=iIulBulltgU6a56xZRHN4H3l9WmuAYTsLGpBGhQ2"
    },
    "id": "3711782",
    "neo_reference_id": "3711782",
    "name": "(2015 DM155)",
    "designation": "2015 DM155",
    "nasa_jpl_url": "http://ssd.jpl.nasa.gov/sbdb.cgi?sstr=3711782",
    "absolute_magnitude_h": 25.7,
    "estimated_diameter": {
        "kilometers": {
            "estimated_diameter_min": 0.0192555078,
            "estimated_diameter_max": 0.0430566244
        },
        "meters": {
            "estimated_diameter_min": 19.2555078188,
            "estimated_diameter_max": 43.0566244241
        },
        "miles": {
            "estimated_diameter_min": 0.0119648141,
            "estimated_diameter_max": 0.0267541378
        },
        "feet": {
            "estimated_diameter_min": 63.1742402722,
            "estimated_diameter_max": 141.2618956756
        }
    },
    "is_potentially_hazardous_asteroid": false,
    "close_approach_data": [
        {
            "close_approach_date": "2015-02-14",
            "close_approach_date_full": "2015-Feb-14 21:51",
            "epoch_date_close_approach": 1423950660000,
            "relative_velocity": {
                "kilometers_per_second": "9.7989274499",
                "kilometers_per_hour": "35276.138819607",
                "miles_per_hour": "21919.2208126608"
            },
            "miss_distance": {
                "astronomical": "0.02285582",
                "lunar": "8.89091398",
                "kilometers": "3419181.9891034",
                "miles": "2124581.16989092"
            },
            "orbiting_body": "Earth"
        }
    ],
    "orbital_data": {
        "orbit_id": "7",
        "orbit_determination_date": "2017-04-06 08:35:30",
        "first_observation_date": "2015-02-20",
        "last_observation_date": "2015-02-24",
        "data_arc_in_days": 4,
        "observations_used": 43,
        "orbit_uncertainty": "8",
        "minimum_orbit_intersection": ".0148562",
        "jupiter_tisserand_invariant": "4.036",
        "epoch_osculation": "2457074.5",
        "eccentricity": ".4633590694670663",
        "semi_major_axis": "1.721102780662902",
        "inclination": "6.614577350306152",
        "ascending_node_longitude": "149.6010220657751",
        "orbital_period": "824.7240062010035",
        "perihelion_distance": ".9236141977577594",
        "perihelion_argument": "314.2801540513973",
        "aphelion_distance": "2.518591363568045",
        "perihelion_time": "2457036.301510878440",
        "mean_anomaly": "16.67400970550876",
        "mean_motion": ".4365096654070962",
        "equinox": "J2000",
        "orbit_class": {
            "orbit_class_type": "APO",
            "orbit_class_description": "Near-Earth asteroid orbits which cross the Earth’s orbit similar to that of 1862 Apollo",
            "orbit_class_range": "a (semi-major axis) > 1.0 AU; q (perihelion) < 1.017 AU"
        }
    },
    "is_sentry_object": false
}